[{"OBJECT_NAME":"STARLINK-3056","OBJECT_ID":"2021-082AF","EPOCH":"2026-03-09T21:20:27.846816","MEAN_MOTION":14.98317734,"ECCENTRICITY":0.00029466,"INCLINATION":69.998,"RA_OF_ASC_NODE":293.9534,"ARG_OF_PERICENTER":270.2418,"MEAN_ANOMALY":89.8404,"EPHEMERIS_TYPE":0,"CLASSIFICATION_TYPE":"U","NORAD_CAT_ID":49159,"ELEMENT_SET_NO":999,"REV_AT_EPOCH":24710,"BSTAR":9.1259836e-5,"MEAN_MOTION_DOT":9.96e-6,"MEAN_MOTION_DDOT":0},{"OBJECT_NAME":"FENGYUN 1C DEB","OBJECT_ID":"1999-025DWK","EPOCH":"2026-03-04T22:59:43.178496","MEAN_MOTION":14.75372926,"ECCENTRICITY":0.0170684,"INCLINATION":99.0756,"RA_OF_ASC_NODE":108.4567,"ARG_OF_PERICENTER":229.4091,"MEAN_ANOMALY":129.2157,"EPHEMERIS_TYPE":0,"CLASSIFICATION_TYPE":"U","NORAD_CAT_ID":36258,"ELEMENT_SET_NO":999,"REV_AT_EPOCH":92034,"BSTAR":0.000371885,"MEAN_MOTION_DOT":3.121e-5,"MEAN_MOTION_DDOT":0}]
